start=new Date('2022-05-11T00:00:00.000Z').valueOf();
sats=[{"MEAN_ANOMALY":"285.0252","APOAPSIS":"547.945","ELEMENT_SET_NO":"999","PERIOD":"95.592","NORAD_CAT_ID":"48114","SEMIMAJOR_AXIS":"6925.342","TLE_LINE1":"1 48114U 21027Y   22130.85870931 -.00001413  00000-0 -76010-4 0  9998","DECAY_DATE":null,"TLE_LINE2":"2 48114  53.0538 326.2278 0001065  75.0855 285.0252 15.06402035 61654","TIME_SYSTEM":"UTC","SITE":"AFETR","COUNTRY_CODE":"US","MEAN_MOTION_DDOT":"0.0000000000000","PERIAPSIS":"546.470","RCS_SIZE":"LARGE","ECCENTRICITY":"0.00010650","BSTAR":"-0.00007601000000","INCLINATION":"53.0538","EPHEMERIS_TYPE":"0","REV_AT_EPOCH":"6165","LAUNCH_DATE":"2021-04-07","OBJECT_NAME":"STARLINK-2451","RA_OF_ASC_NODE":"326.2278","MEAN_MOTION_DOT":"-0.00001413","MEAN_ELEMENT_THEORY":"SGP4","OBJECT_TYPE":"PAYLOAD","OBJECT_ID":"2021-027Y","CLASSIFICATION_TYPE":"U","CENTER_NAME":"EARTH","ARG_OF_PERICENTER":"75.0855","FILE":"3439673","EPOCH":"2022-05-10T20:36:32.484384","MEAN_MOTION":"15.06402035","REF_FRAME":"TEME","GP_ID":"203227117"},{"BSTAR":"0.00004858100000","ECCENTRICITY":"0.00013820","EPHEMERIS_TYPE":"0","REV_AT_EPOCH":"6172","LAUNCH_DATE":"2021-04-07","OBJECT_NAME":"STARLINK-2452","RA_OF_ASC_NODE":"321.0978","INCLINATION":"53.0548","CENTER_NAME":"EARTH","MEAN_MOTION_DOT":"0.00000442","MEAN_ELEMENT_THEORY":"SGP4","OBJECT_TYPE":"PAYLOAD","OBJECT_ID":"2021-027Z","CLASSIFICATION_TYPE":"U","FILE":"3439673","MEAN_MOTION":"15.06394553","EPOCH":"2022-05-10T21:17:00.965472","REF_FRAME":"TEME","GP_ID":"203227869","ARG_OF_PERICENTER":"74.8203","APOAPSIS":"548.187","ELEMENT_SET_NO":"999","MEAN_ANOMALY":"285.2939","NORAD_CAT_ID":"48115","PERIOD":"95.592","TLE_LINE1":"1 48115U 21027Z   22130.88681673  .00000442  00000-0  48581-4 0  9996","SEMIMAJOR_AXIS":"6925.365","DECAY_DATE":null,"SITE":"AFETR","COUNTRY_CODE":"US","TIME_SYSTEM":"UTC","TLE_LINE2":"2 48115  53.0548 321.0978 0001382  74.8203 285.2939 15.06394553 61729","RCS_SIZE":"LARGE","MEAN_MOTION_DDOT":"0.0000000000000","PERIAPSIS":"546.273"},{"MEAN_MOTION_DOT":"0.00001834","OBJECT_TYPE":"PAYLOAD","OBJECT_ID":"2021-027AA","MEAN_ELEMENT_THEORY":"SGP4","CLASSIFICATION_TYPE":"U","CENTER_NAME":"EARTH","ARG_OF_PERICENTER":"77.0404","FILE":"3439673","EPOCH":"2022-05-10T19:52:07.109184","MEAN_MOTION":"15.06402149","REF_FRAME":"TEME","GP_ID":"203227619","ECCENTRICITY":"0.00015190","BSTAR":"0.00014195000000","INCLINATION":"53.0551","EPHEMERIS_TYPE":"0","REV_AT_EPOCH":"6157","RA_OF_ASC_NODE":"331.3436","LAUNCH_DATE":"2021-04-07","OBJECT_NAME":"STARLINK-2454","TIME_SYSTEM":"UTC","TLE_LINE2":"2 48116  53.0551 331.3436 0001519  77.0404 283.0754 15.06402149 61572","SITE":"AFETR","COUNTRY_CODE":"US","MEAN_MOTION_DDOT":"0.0000000000000","PERIAPSIS":"546.155","RCS_SIZE":"LARGE","MEAN_ANOMALY":"283.0754","APOAPSIS":"548.259","ELEMENT_SET_NO":"999","PERIOD":"95.592","NORAD_CAT_ID":"48116","SEMIMAJOR_AXIS":"6925.342","TLE_LINE1":"1 48116U 21027AA  22130.82786006  .00001834  00000-0  14195-3 0  9996","DECAY_DATE":null},{"APOAPSIS":"548.274","ELEMENT_SET_NO":"999","MEAN_ANOMALY":"270.7023","DECAY_DATE":null,"TLE_LINE1":"1 48117U 21027AB  22130.86563044  .00000088  00000-0  24808-4 0  9999","SEMIMAJOR_AXIS":"6925.389","PERIOD":"95.593","NORAD_CAT_ID":"48117","COUNTRY_CODE":"US","SITE":"AFETR","TLE_LINE2":"2 48117  53.0569 311.1778 0001473  89.4134 270.7023 15.06386803 61865","TIME_SYSTEM":"UTC","RCS_SIZE":"LARGE","PERIAPSIS":"546.234","MEAN_MOTION_DDOT":"0.0000000000000","BSTAR":"0.00002480800000","ECCENTRICITY":"0.00014730","LAUNCH_DATE":"2021-04-07","RA_OF_ASC_NODE":"311.1778","OBJECT_NAME":"STARLINK-2455","REV_AT_EPOCH":"6186","EPHEMERIS_TYPE":"0","INCLINATION":"53.0569","CENTER_NAME":"EARTH","CLASSIFICATION_TYPE":"U","OBJECT_TYPE":"PAYLOAD","OBJECT_ID":"2021-027AB","MEAN_ELEMENT_THEORY":"SGP4","MEAN_MOTION_DOT":"0.00000088","GP_ID":"203226368","REF_FRAME":"TEME","MEAN_MOTION":"15.06386803","EPOCH":"2022-05-10T20:46:30.470016","FILE":"3439673","ARG_OF_PERICENTER":"89.4134"},{"PERIOD":"95.592","NORAD_CAT_ID":"48118","TLE_LINE1":"1 48118U 21027AC  22130.81127598  .00001755  00000-0  13671-3 0  9992","SEMIMAJOR_AXIS":"6925.361","DECAY_DATE":null,"ELEMENT_SET_NO":"999","APOAPSIS":"548.143","MEAN_ANOMALY":"280.9663","RCS_SIZE":"LARGE","MEAN_MOTION_DDOT":"0.0000000000000","PERIAPSIS":"546.309","SITE":"AFETR","COUNTRY_CODE":"US","TIME_SYSTEM":"UTC","TLE_LINE2":"2 48118  53.0568 311.4282 0001324  79.1475 280.9663 15.06396066 61851","EPHEMERIS_TYPE":"0","REV_AT_EPOCH":"6185","LAUNCH_DATE":"2021-04-07","RA_OF_ASC_NODE":"311.4282","OBJECT_NAME":"STARLINK-2458","INCLINATION":"53.0568","BSTAR":"0.00013671000000","ECCENTRICITY":"0.00013240","FILE":"3439673","MEAN_MOTION":"15.06396066","EPOCH":"2022-05-10T19:28:14.244672","REF_FRAME":"TEME","GP_ID":"203226618","ARG_OF_PERICENTER":"79.1475","CENTER_NAME":"EARTH","MEAN_MOTION_DOT":"0.00001755","OBJECT_TYPE":"PAYLOAD","OBJECT_ID":"2021-027AC","MEAN_ELEMENT_THEORY":"SGP4","CLASSIFICATION_TYPE":"U"},{"PERIAPSIS":"546.241","MEAN_MOTION_DDOT":"0.0000000000000","RCS_SIZE":"LARGE","TLE_LINE2":"2 48119  53.0567 311.4406 0001466  73.6470 286.4680 15.06386108 61845","TIME_SYSTEM":"UTC","SITE":"AFETR","COUNTRY_CODE":"US","NORAD_CAT_ID":"48119","PERIOD":"95.593","TLE_LINE1":"1 48119U 21027AD  22130.80759684 -.00000330  00000-0 -32435-5 0  9990","SEMIMAJOR_AXIS":"6925.391","DECAY_DATE":null,"MEAN_ANOMALY":"286.4680","APOAPSIS":"548.271","ELEMENT_SET_NO":"999","ARG_OF_PERICENTER":"73.6470","FILE":"3439673","EPOCH":"2022-05-10T19:22:56.366976","MEAN_MOTION":"15.06386108","REF_FRAME":"TEME","GP_ID":"203227370","MEAN_MOTION_DOT":"-0.00000330","OBJECT_TYPE":"PAYLOAD","MEAN_ELEMENT_THEORY":"SGP4","OBJECT_ID":"2021-027AD","CLASSIFICATION_TYPE":"U","CENTER_NAME":"EARTH","INCLINATION":"53.0567","EPHEMERIS_TYPE":"0","REV_AT_EPOCH":"6184","LAUNCH_DATE":"2021-04-07","RA_OF_ASC_NODE":"311.4406","OBJECT_NAME":"STARLINK-2459","ECCENTRICITY":"0.00014660","BSTAR":"-0.00000324350000"},{"PERIAPSIS":"546.159","MEAN_MOTION_DDOT":"0.0000000000000","RCS_SIZE":"LARGE","TIME_SYSTEM":"UTC","TLE_LINE2":"2 48120  53.0553 331.1280 0001522  80.7113 279.4048 15.06400077 61591","SITE":"AFETR","COUNTRY_CODE":"US","NORAD_CAT_ID":"48120","PERIOD":"95.592","TLE_LINE1":"1 48120U 21027AE  22130.87946513 -.00000375  00000-0 -62978-5 0  9992","SEMIMAJOR_AXIS":"6925.348","DECAY_DATE":null,"MEAN_ANOMALY":"279.4048","ELEMENT_SET_NO":"999","APOAPSIS":"548.267","ARG_OF_PERICENTER":"80.7113","FILE":"3439673","EPOCH":"2022-05-10T21:06:25.787232","MEAN_MOTION":"15.06400077","REF_FRAME":"TEME","GP_ID":"203228119","MEAN_MOTION_DOT":"-0.00000375","OBJECT_TYPE":"PAYLOAD","OBJECT_ID":"2021-027AE","MEAN_ELEMENT_THEORY":"SGP4","CLASSIFICATION_TYPE":"U","CENTER_NAME":"EARTH","INCLINATION":"53.0553","EPHEMERIS_TYPE":"0","REV_AT_EPOCH":"6159","OBJECT_NAME":"STARLINK-2460","LAUNCH_DATE":"2021-04-07","RA_OF_ASC_NODE":"331.1280","ECCENTRICITY":"0.00015220","BSTAR":"-0.00000629780000"},{"CENTER_NAME":"EARTH","MEAN_MOTION_DOT":"0.00000629","CLASSIFICATION_TYPE":"U","OBJECT_ID":"2021-027AF","OBJECT_TYPE":"PAYLOAD","MEAN_ELEMENT_THEORY":"SGP4","EPOCH":"2022-05-10T20:25:17.893920","MEAN_MOTION":"15.06398126","FILE":"3439673","GP_ID":"203226868","REF_FRAME":"TEME","ARG_OF_PERICENTER":"97.0807","BSTAR":"0.00006110600000","ECCENTRICITY":"0.00014170","REV_AT_EPOCH":"6171","EPHEMERIS_TYPE":"0","LAUNCH_DATE":"2021-04-07","RA_OF_ASC_NODE":"321.2537","OBJECT_NAME":"STARLINK-2462","INCLINATION":"53.0548","COUNTRY_CODE":"US","SITE":"AFETR","TIME_SYSTEM":"UTC","TLE_LINE2":"2 48121  53.0548 321.2537 0001417  97.0807 263.0343 15.06398126 61717","RCS_SIZE":"LARGE","PERIAPSIS":"546.238","MEAN_MOTION_DDOT":"0.0000000000000","ELEMENT_SET_NO":"999","APOAPSIS":"548.201","MEAN_ANOMALY":"263.0343","TLE_LINE1":"1 48121U 21027AF  22130.85090155  .00000629  00000-0  61106-4 0  9994","SEMIMAJOR_AXIS":"6925.354","NORAD_CAT_ID":"48121","PERIOD":"95.592","DECAY_DATE":null},{"MEAN_MOTION_DOT":"-0.00000117","CLASSIFICATION_TYPE":"U","OBJECT_TYPE":"PAYLOAD","MEAN_ELEMENT_THEORY":"SGP4","OBJECT_ID":"2021-027AG","CENTER_NAME":"EARTH","ARG_OF_PERICENTER":"67.3455","MEAN_MOTION":"15.06391645","EPOCH":"2022-05-10T20:27:15.343488","FILE":"3439673","GP_ID":"203227118","REF_FRAME":"TEME","ECCENTRICITY":"0.00014940","BSTAR":"0.00001102600000","INCLINATION":"53.0547","REV_AT_EPOCH":"6179","EPHEMERIS_TYPE":"0","LAUNCH_DATE":"2021-04-07","RA_OF_ASC_NODE":"316.2527","OBJECT_NAME":"STARLINK-2463","TIME_SYSTEM":"UTC","TLE_LINE2":"2 48122  53.0547 316.2527 0001494  67.3455 292.7692 15.06391645 61797","COUNTRY_CODE":"US","SITE":"AFETR","PERIAPSIS":"546.205","MEAN_MOTION_DDOT":"0.0000000000000","RCS_SIZE":"LARGE","MEAN_ANOMALY":"292.7692","APOAPSIS":"548.274","ELEMENT_SET_NO":"999","SEMIMAJOR_AXIS":"6925.374","TLE_LINE1":"1 48122U 21027AG  22130.85226092 -.00000117  00000-0  11026-4 0  9995","NORAD_CAT_ID":"48122","PERIOD":"95.593","DECAY_DATE":null},{"MEAN_MOTION_DOT":"-0.00000576","OBJECT_TYPE":"PAYLOAD","MEAN_ELEMENT_THEORY":"SGP4","OBJECT_ID":"2021-027AH","CLASSIFICATION_TYPE":"U","CENTER_NAME":"EARTH","ARG_OF_PERICENTER":"78.4410","FILE":"3439673","EPOCH":"2022-05-10T17:26:09.572352","MEAN_MOTION":"15.06395385","REF_FRAME":"TEME","GP_ID":"203227870","ECCENTRICITY":"0.00013380","BSTAR":"-0.00001976300000","INCLINATION":"53.0570","EPHEMERIS_TYPE":"0","REV_AT_EPOCH":"6184","OBJECT_NAME":"STARLINK-2464","LAUNCH_DATE":"2021-04-07","RA_OF_ASC_NODE":"311.8104","TIME_SYSTEM":"UTC","TLE_LINE2":"2 48123  53.0570 311.8104 0001338  78.4410 281.6729 15.06395385 61846","SITE":"AFETR","COUNTRY_CODE":"US","MEAN_MOTION_DDOT":"0.0000000000000","PERIAPSIS":"546.301","RCS_SIZE":"LARGE","MEAN_ANOMALY":"281.6729","APOAPSIS":"548.154","ELEMENT_SET_NO":"999","NORAD_CAT_ID":"48123","PERIOD":"95.592","SEMIMAJOR_AXIS":"6925.363","TLE_LINE1":"1 48123U 21027AH  22130.72649968 -.00000576  00000-0 -19763-4 0  9999","DECAY_DATE":null}];
